[{"OBJECT_NAME":"STARLINK-11205 [DTC]","OBJECT_ID":"2024-133N","EPOCH":"2026-01-24T04:56:03.845184","MEAN_MOTION":15.69748232,"ECCENTRICITY":0.00016462,"INCLINATION":53.1583,"RA_OF_ASC_NODE":5.7818,"ARG_OF_PERICENTER":113.6983,"MEAN_ANOMALY":246.4207,"EPHEMERIS_TYPE":0,"CLASSIFICATION_TYPE":"U","NORAD_CAT_ID":60313,"ELEMENT_SET_NO":999,"REV_AT_EPOCH":8674,"BSTAR":0.00015726725,"MEAN_MOTION_DOT":0.00018536,"MEAN_MOTION_DDOT":0},{"OBJECT_NAME":"STARLINK-32191","OBJECT_ID":"2024-133P","EPOCH":"2026-01-24T11:30:43.076736","MEAN_MOTION":15.30212786,"ECCENTRICITY":0.00012495,"INCLINATION":53.1579,"RA_OF_ASC_NODE":142.2643,"ARG_OF_PERICENTER":89.3978,"MEAN_ANOMALY":270.7166,"EPHEMERIS_TYPE":0,"CLASSIFICATION_TYPE":"U","NORAD_CAT_ID":60314,"ELEMENT_SET_NO":999,"REV_AT_EPOCH":8487,"BSTAR":0.0010885884,"MEAN_MOTION_DOT":0.00032034,"MEAN_MOTION_DDOT":0},{"OBJECT_NAME":"STARLINK-32194","OBJECT_ID":"2024-133Q","EPOCH":"2026-01-24T00:53:37.440096","MEAN_MOTION":15.30203082,"ECCENTRICITY":0.00010994,"INCLINATION":53.1619,"RA_OF_ASC_NODE":144.484,"ARG_OF_PERICENTER":86.7629,"MEAN_ANOMALY":273.3498,"EPHEMERIS_TYPE":0,"CLASSIFICATION_TYPE":"U","NORAD_CAT_ID":60315,"ELEMENT_SET_NO":999,"REV_AT_EPOCH":8480,"BSTAR":-2.4334145e-5,"MEAN_MOTION_DOT":-1.08e-5,"MEAN_MOTION_DDOT":0},{"OBJECT_NAME":"STARLINK-32192","OBJECT_ID":"2024-133R","EPOCH":"2026-01-24T01:34:29.418528","MEAN_MOTION":15.3021658,"ECCENTRICITY":7.168e-5,"INCLINATION":53.16,"RA_OF_ASC_NODE":143.9513,"ARG_OF_PERICENTER":72.3835,"MEAN_ANOMALY":287.7244,"EPHEMERIS_TYPE":0,"CLASSIFICATION_TYPE":"U","NORAD_CAT_ID":60316,"ELEMENT_SET_NO":999,"REV_AT_EPOCH":8490,"BSTAR":0.00018306765,"MEAN_MOTION_DOT":5.069e-5,"MEAN_MOTION_DDOT":0},{"OBJECT_NAME":"STARLINK-32189","OBJECT_ID":"2024-133S","EPOCH":"2026-01-24T14:57:02.951712","MEAN_MOTION":15.30189635,"ECCENTRICITY":0.00015499,"INCLINATION":53.1612,"RA_OF_ASC_NODE":141.7369,"ARG_OF_PERICENTER":72.5295,"MEAN_ANOMALY":287.5875,"EPHEMERIS_TYPE":0,"CLASSIFICATION_TYPE":"U","NORAD_CAT_ID":60317,"ELEMENT_SET_NO":999,"REV_AT_EPOCH":8498,"BSTAR":-0.00036613608,"MEAN_MOTION_DOT":-0.00011184,"MEAN_MOTION_DDOT":0},{"OBJECT_NAME":"STARLINK-32190","OBJECT_ID":"2024-133T","EPOCH":"2026-01-24T14:43:22.889568","MEAN_MOTION":15.30195336,"ECCENTRICITY":8.53e-5,"INCLINATION":53.1578,"RA_OF_ASC_NODE":141.6759,"ARG_OF_PERICENTER":81.0833,"MEAN_ANOMALY":279.0265,"EPHEMERIS_TYPE":0,"CLASSIFICATION_TYPE":"U","NORAD_CAT_ID":60318,"ELEMENT_SET_NO":999,"REV_AT_EPOCH":8489,"BSTAR":-0.00010960518,"MEAN_MOTION_DOT":-3.603e-5,"MEAN_MOTION_DDOT":0},{"OBJECT_NAME":"STARLINK-32182","OBJECT_ID":"2024-133U","EPOCH":"2026-01-24T19:40:43.933152","MEAN_MOTION":15.3016617,"ECCENTRICITY":0.00010733,"INCLINATION":53.1578,"RA_OF_ASC_NODE":140.8364,"ARG_OF_PERICENTER":81.3204,"MEAN_ANOMALY":278.7918,"EPHEMERIS_TYPE":0,"CLASSIFICATION_TYPE":"U","NORAD_CAT_ID":60319,"ELEMENT_SET_NO":999,"REV_AT_EPOCH":8492,"BSTAR":-0.0003695109,"MEAN_MOTION_DOT":-0.00011275,"MEAN_MOTION_DDOT":0},{"OBJECT_NAME":"STARLINK-32199","OBJECT_ID":"2024-133V","EPOCH":"2026-01-24T17:56:02.863968","MEAN_MOTION":15.30194526,"ECCENTRICITY":0.00011582,"INCLINATION":53.1566,"RA_OF_ASC_NODE":141.0889,"ARG_OF_PERICENTER":102.6844,"MEAN_ANOMALY":257.4286,"EPHEMERIS_TYPE":0,"CLASSIFICATION_TYPE":"U","NORAD_CAT_ID":60320,"ELEMENT_SET_NO":999,"REV_AT_EPOCH":8491,"BSTAR":-0.00020507295,"MEAN_MOTION_DOT":-6.427e-5,"MEAN_MOTION_DDOT":0},{"OBJECT_NAME":"STARLINK-32198","OBJECT_ID":"2024-133W","EPOCH":"2026-01-24T16:35:42.208800","MEAN_MOTION":15.30175023,"ECCENTRICITY":9.316e-5,"INCLINATION":53.1627,"RA_OF_ASC_NODE":141.4533,"ARG_OF_PERICENTER":87.0903,"MEAN_ANOMALY":273.0205,"EPHEMERIS_TYPE":0,"CLASSIFICATION_TYPE":"U","NORAD_CAT_ID":60321,"ELEMENT_SET_NO":999,"REV_AT_EPOCH":8499,"BSTAR":-0.00014599747,"MEAN_MOTION_DOT":-4.677e-5,"MEAN_MOTION_DDOT":0},{"OBJECT_NAME":"STARLINK-31745","OBJECT_ID":"2024-136A","EPOCH":"2026-01-24T16:34:39.523872","MEAN_MOTION":15.30202272,"ECCENTRICITY":5.363e-5,"INCLINATION":53.1598,"RA_OF_ASC_NODE":280.3587,"ARG_OF_PERICENTER":57.0646,"MEAN_ANOMALY":303.0406,"EPHEMERIS_TYPE":0,"CLASSIFICATION_TYPE":"U","NORAD_CAT_ID":60329,"ELEMENT_SET_NO":999,"REV_AT_EPOCH":8413,"BSTAR":0.00023172993,"MEAN_MOTION_DOT":6.511e-5,"MEAN_MOTION_DDOT":0},{"OBJECT_NAME":"STARLINK-32153","OBJECT_ID":"2024-136B","EPOCH":"2026-01-24T16:33:08.729568","MEAN_MOTION":15.30201127,"ECCENTRICITY":0.00017301,"INCLINATION":53.1576,"RA_OF_ASC_NODE":280.3537,"ARG_OF_PERICENTER":64.5,"MEAN_ANOMALY":295.6179,"EPHEMERIS_TYPE":0,"CLASSIFICATION_TYPE":"U","NORAD_CAT_ID":60330,"ELEMENT_SET_NO":999,"REV_AT_EPOCH":8292,"BSTAR":-9.0786631e-5,"MEAN_MOTION_DOT":-3.047e-5,"MEAN_MOTION_DDOT":0},{"OBJECT_NAME":"STARLINK-32203","OBJECT_ID":"2024-136C","EPOCH":"2026-01-24T09:25:22.585728","MEAN_MOTION":15.30212664,"ECCENTRICITY":7.196e-5,"INCLINATION":53.1596,"RA_OF_ASC_NODE":271.3993,"ARG_OF_PERICENTER":244.6389,"MEAN_ANOMALY":115.4538,"EPHEMERIS_TYPE":0,"CLASSIFICATION_TYPE":"U","NORAD_CAT_ID":60331,"ELEMENT_SET_NO":999,"REV_AT_EPOCH":8302,"BSTAR":0.00027514147,"MEAN_MOTION_DOT":7.802e-5,"MEAN_MOTION_DDOT":0},{"OBJECT_NAME":"STARLINK-32171","OBJECT_ID":"2024-136D","EPOCH":"2026-01-24T21:37:54.999264","MEAN_MOTION":15.3021395,"ECCENTRICITY":7.354e-5,"INCLINATION":53.1571,"RA_OF_ASC_NODE":278.8356,"ARG_OF_PERICENTER":122.7017,"MEAN_ANOMALY":237.4055,"EPHEMERIS_TYPE":0,"CLASSIFICATION_TYPE":"U","NORAD_CAT_ID":60332,"ELEMENT_SET_NO":999,"REV_AT_EPOCH":8296,"BSTAR":-0.00026689929,"MEAN_MOTION_DOT":-8.258e-5,"MEAN_MOTION_DDOT":0},{"OBJECT_NAME":"STARLINK-32133","OBJECT_ID":"2024-136E","EPOCH":"2026-01-24T16:24:02.560608","MEAN_MOTION":15.30180672,"ECCENTRICITY":0.00013951,"INCLINATION":53.1604,"RA_OF_ASC_NODE":280.3111,"ARG_OF_PERICENTER":103.7141,"MEAN_ANOMALY":256.4015,"EPHEMERIS_TYPE":0,"CLASSIFICATION_TYPE":"U","NORAD_CAT_ID":60333,"ELEMENT_SET_NO":999,"REV_AT_EPOCH":8292,"BSTAR":-3.488346e-5,"MEAN_MOTION_DOT":-1.392e-5,"MEAN_MOTION_DDOT":0},{"OBJECT_NAME":"STARLINK-32132","OBJECT_ID":"2024-136F","EPOCH":"2026-01-24T16:14:54.376800","MEAN_MOTION":15.30214037,"ECCENTRICITY":0.00022609,"INCLINATION":53.1586,"RA_OF_ASC_NODE":280.2741,"ARG_OF_PERICENTER":69.7506,"MEAN_ANOMALY":290.3738,"EPHEMERIS_TYPE":0,"CLASSIFICATION_TYPE":"U","NORAD_CAT_ID":60334,"ELEMENT_SET_NO":999,"REV_AT_EPOCH":8292,"BSTAR":-2.0539568e-5,"MEAN_MOTION_DOT":-9.68e-6,"MEAN_MOTION_DDOT":0},{"OBJECT_NAME":"STARLINK-32168","OBJECT_ID":"2024-136G","EPOCH":"2026-01-24T17:44:23.980416","MEAN_MOTION":15.30192169,"ECCENTRICITY":0.00014312,"INCLINATION":53.1575,"RA_OF_ASC_NODE":279.9499,"ARG_OF_PERICENTER":81.2147,"MEAN_ANOMALY":278.9016,"EPHEMERIS_TYPE":0,"CLASSIFICATION_TYPE":"U","NORAD_CAT_ID":60335,"ELEMENT_SET_NO":999,"REV_AT_EPOCH":8293,"BSTAR":3.295851e-6,"MEAN_MOTION_DOT":-2.62e-6,"MEAN_MOTION_DDOT":0}]
