STARLINK-11205 [DTC]    
1 60313U 24133N   26024.20560006  .00018536  00000+0  15727-3 0  9996
2 60313  53.1583   5.7818 0001646 113.6983 246.4207 15.69748232 86744
STARLINK-32191          
1 60314U 24133P   26024.47966524  .00032034  00000+0  10886-2 0  9990
2 60314  53.1579 142.2643 0001249  89.3978 270.7166 15.30212786 84879
STARLINK-32194          
1 60315U 24133Q   26024.03723889 -.00001080  00000+0 -24334-4 0  9992
2 60315  53.1619 144.4840 0001099  86.7629 273.3498 15.30203082 84804
STARLINK-32192          
1 60316U 24133R   26024.06561827  .00005069  00000+0  18307-3 0  9999
2 60316  53.1600 143.9513 0000716  72.3835 287.7244 15.30216580 84907
STARLINK-32189          
1 60317U 24133S   26024.62295083 -.00011184  00000+0 -36614-3 0  9998
2 60317  53.1612 141.7369 0001549  72.5295 287.5875 15.30189635 84989
STARLINK-32190          
1 60318U 24133T   26024.61345937 -.00003603  00000+0 -10961-3 0  9996
2 60318  53.1578 141.6759 0000853  81.0833 279.0265 15.30195336 84897
STARLINK-32182          
1 60319U 24133U   26024.81995293 -.00011275  00000+0 -36951-3 0  9996
2 60319  53.1578 140.8364 0001073  81.3204 278.7918 15.30166170 84920
STARLINK-32199          
1 60320U 24133V   26024.74725537 -.00006427  00000+0 -20507-3 0  9995
2 60320  53.1566 141.0889 0001158 102.6844 257.4286 15.30194526 84912
STARLINK-32198          
1 60321U 24133W   26024.69146075 -.00004677  00000+0 -14600-3 0  9996
2 60321  53.1627 141.4533 0000931  87.0903 273.0205 15.30175023 84995
STARLINK-31745          
1 60329U 24136A   26024.69073523  .00006511  00000+0  23173-3 0  9996
2 60329  53.1598 280.3587 0000536  57.0646 303.0406 15.30202272 84134
STARLINK-32153          
1 60330U 24136B   26024.68968437 -.00003047  00000+0 -90787-4 0  9993
2 60330  53.1576 280.3537 0001730  64.5000 295.6179 15.30201127 82927
STARLINK-32203          
1 60331U 24136C   26024.39262252  .00007802  00000+0  27514-3 0  9992
2 60331  53.1596 271.3993 0000719 244.6389 115.4538 15.30212664 83021
STARLINK-32171          
1 60332U 24136D   26024.90133101 -.00008258  00000+0 -26690-3 0  9992
2 60332  53.1571 278.8356 0000735 122.7017 237.4055 15.30213950 82962
STARLINK-32133          
1 60333U 24136E   26024.68336297 -.00001392  00000+0 -34883-4 0  9995
2 60333  53.1604 280.3111 0001395 103.7141 256.4015 15.30180672 82924
STARLINK-32132          
1 60334U 24136F   26024.67701825 -.00000968  00000+0 -20540-4 0  9991
2 60334  53.1586 280.2741 0002260  69.7506 290.3738 15.30214037 82922
STARLINK-32168          
1 60335U 24136G   26024.73916644 -.00000262  00000+0  32959-5 0  9990
2 60335  53.1575 279.9499 0001431  81.2147 278.9016 15.30192169 82938
